STARLINK-34202          
1 64174U 25113E   26189.50841403  .00017513  00000+0  60163-3 0  9990
2 64174  53.1589 249.8951 0001658 327.7209  32.3690 15.30221737 63567
STARLINK-34231          
1 64175U 25113F   26190.17496128  .00007384  00000+0  24935-3 0  9998
2 64175  53.1578 246.2393 0000819  79.7090 280.4003 15.31714630 63673
STARLINK-34191          
1 64176U 25113G   26190.16388166  .00015440  00000+0  46704-3 0  9990
2 64176  53.1586 244.7524 0001164 306.7662  53.3234 15.34407676 63691
STARLINK-34164          
1 64177U 25113H   26190.18478097  .00009488  00000+0  33187-3 0  9992
2 64177  53.1574 247.0109 0000882  74.4790 285.6308 15.30218225 63666
STARLINK-34227          
1 64178U 25113J   26190.16472963  .00011619  00000+0  40347-3 0  9992
2 64178  53.1584 246.8821 0000936  68.7761 291.3339 15.30225662 63661
STARLINK-34194          
1 64179U 25113K   26190.26678891  .00022643  00000+0  67845-3 0  9993
2 64179  53.1589 243.9737 0001683  75.5191 284.5998 15.34437802 63710
STARLINK-34000          
1 64180U 25113L   26190.14995942  .00012035  00000+0  41776-3 0  9990
2 64180  53.1598 246.7885 0001045  70.0096 290.1017 15.30204072 63625
STARLINK-33917          
1 64181U 25113M   26189.45788081  .00018387  00000+0  63083-3 0  9998
2 64181  53.1559 250.2888 0000896  92.2355 267.8748 15.30229192 63557
STARLINK-34131          
1 64182U 25113N   26190.16262583  .00016512  00000+0  56797-3 0  9995
2 64182  53.1591 246.8652 0001165  78.9656 281.1476 15.30222762 63620
STARLINK-34188          
1 64183U 25113P   26190.17031056  .00022547  00000+0  73547-3 0  9993
2 64183  53.1580 246.2086 0001195  86.8362 273.2776 15.31728333 63675
STARLINK-34197          
1 64184U 25113Q   26190.18161509  .00010272  00000+0  35836-3 0  9993
2 64184  53.1566 246.9883 0000885  73.3071 286.8027 15.30206587 63664
STARLINK-34063          
1 64185U 25113R   26189.18222384  .00020037  00000+0  65500-3 0  9992
2 64185  53.1586 250.7089 0001304  81.5412 278.5738 15.31735281 63526
STARLINK-34200          
1 64186U 25113S   26189.15888852  .00016726  00000+0  54896-3 0  9994
2 64186  53.1581 250.5612 0001524  75.3382 284.7789 15.31734541 63526
STARLINK-33934          
1 64187U 25113T   26190.17210026  .00012807  00000+0  44312-3 0  9999
2 64187  53.1570 246.9285 0000848  87.9502 272.1596 15.30248152 63626
STARLINK-33929          
1 64188U 25113U   26189.45154832  .00018042  00000+0  61935-3 0  9998
2 64188  53.1573 250.2479 0001207  84.3906 275.7232 15.30223373 63558
STARLINK-33872          
1 64189U 25113V   26190.25002315 -.00013258  00000+0 -38184-3 0  9993
2 64189  53.1583 243.9773 0001358  97.6120 204.6457 15.34408583  5725
STARLINK-34214          
1 64190U 25113W   26190.18266616  .00015455  00000+0  53247-3 0  9999
2 64190  53.1569 246.9894 0000662  14.5838 345.5182 15.30221755 63666
STARLINK-34222          
1 64191U 25113X   26190.18794537  .00006774  00000+0  24049-3 0  9990
2 64191  53.1572 247.0194 0001184  88.0667 272.0469 15.30217740 63629
STARLINK-34265          
1 64192U 25113Y   26189.45682210  .00013199  00000+0  45685-3 0  9991
2 64192  53.1573 250.2847 0001124  77.9013 282.2114 15.30207501 63510
STARLINK-34245          
1 64193U 25113Z   26189.43476682  .00022104  00000+0  66295-3 0  9990
2 64193  53.1581 248.0224 0001489  85.8987 274.2185 15.34421885 63545
STARLINK-34237          
1 64194U 25113AA  26190.15163456  .00007434  00000+0  25111-3 0  9995
2 64194  53.1587 246.0889 0001732  86.6266 273.4933 15.31697201 63633
STARLINK-33857          
1 64195U 25113AB  26190.25002315 -.00006636  00000+0 -20216-3 0  9999
2 64195  53.1600 246.2936 0001607  76.5700 129.6593 15.31715724  5717
STARLINK-34173          
1 64196U 25113AC  26190.16564269  .00021377  00000+0  69828-3 0  9990
2 64196  53.1582 246.1788 0000611  25.2768 334.8263 15.31716289 63670
STARLINK-33966          
1 64203U 25117A   26190.02443987  .00006536  00000+0  23276-3 0  9998
2 64203  53.1585 195.9441 0001136  91.8893 268.2238 15.30178005 63130
STARLINK-34331          
1 64204U 25117B   26189.99800030  .00016717  00000+0  50512-3 0  9994
2 64204  53.1589 195.0727 0001402  86.4741 273.6422 15.34379613 63116
STARLINK-34251          
1 64205U 25117C   26189.99167674  .00013854  00000+0  42013-3 0  9991
2 64205  53.1577 195.0310 0003283  99.3265 260.8109 15.34418835 63115
STARLINK-34311          
1 64206U 25117D   26190.01272335  .00009770  00000+0  29976-3 0  9993
2 64206  53.1590 195.1661 0001406  44.4050 315.7066 15.34415661 63148
STARLINK-34324          
1 64207U 25117E   26189.30283764  .00010733  00000+0  37400-3 0  9994
2 64207  53.1583 199.2607 0001179 100.7665 259.3468 15.30199789 61964
STARLINK-34327          
1 64208U 25117F   26189.74524131 -.00006152  00000+0 -19561-3 0  9999
2 64208  53.1588 197.0462 0002178  82.5626 277.5623 15.30218974 62020
STARLINK-33944          
1 64209U 25117G   26190.01601846  .00009364  00000+0  32775-3 0  9999
2 64209  53.1583 195.8995 0001304  67.7782 292.3357 15.30211953 63133
