OBJECT_NAME,OBJECT_ID,EPOCH,MEAN_MOTION,ECCENTRICITY,INCLINATION,RA_OF_ASC_NODE,ARG_OF_PERICENTER,MEAN_ANOMALY,EPHEMERIS_TYPE,CLASSIFICATION_TYPE,NORAD_CAT_ID,ELEMENT_SET_NO,REV_AT_EPOCH,BSTAR,MEAN_MOTION_DOT,MEAN_MOTION_DDOT
STARLINK-34202,2025-113E,2026-07-08T12:12:06.972192,15.30221737,.00016585,53.1589,249.8951,327.7209,32.3690,0,U,64174,999,6356,.60162912E-3,.17513E-3,0
STARLINK-34231,2025-113F,2026-07-09T04:11:56.654592,15.31714630,.00008199,53.1578,246.2393,79.7090,280.4003,0,U,64175,999,6367,.24935038E-3,.7384E-4,0
STARLINK-34191,2025-113G,2026-07-09T03:55:59.375424,15.34407676,.00011641,53.1586,244.7524,306.7662,53.3234,0,U,64176,999,6369,.4670412E-3,.1544E-3,0
STARLINK-34164,2025-113H,2026-07-09T04:26:05.075808,15.30218225,.00008828,53.1574,247.0109,74.4790,285.6308,0,U,64177,999,6366,.3318675E-3,.9488E-4,0
STARLINK-34227,2025-113J,2026-07-09T03:57:12.640032,15.30225662,.00009369,53.1584,246.8821,68.7761,291.3339,0,U,64178,999,6366,.40346758E-3,.11619E-3,0
STARLINK-34194,2025-113K,2026-07-09T06:24:10.561824,15.34437802,.00016835,53.1589,243.9737,75.5191,284.5998,0,U,64179,999,6371,.67845032E-3,.22643E-3,0
STARLINK-34000,2025-113L,2026-07-09T03:35:56.493888,15.30204072,.00010452,53.1598,246.7885,70.0096,290.1017,0,U,64180,999,6362,.41776393E-3,.12035E-3,0
STARLINK-33917,2025-113M,2026-07-08T10:59:20.901984,15.30229192,.00008969,53.1559,250.2888,92.2355,267.8748,0,U,64181,999,6355,.63083482E-3,.18387E-3,0
STARLINK-34131,2025-113N,2026-07-09T03:54:10.871712,15.30222762,.00011654,53.1591,246.8652,78.9656,281.1476,0,U,64182,999,6362,.56797158E-3,.16512E-3,0
STARLINK-34188,2025-113P,2026-07-09T04:05:14.832384,15.31728333,.00011954,53.1580,246.2086,86.8362,273.2776,0,U,64183,999,6367,.73547173E-3,.22547E-3,0
STARLINK-34197,2025-113Q,2026-07-09T04:21:31.543776,15.30206587,.00008857,53.1566,246.9883,73.3071,286.8027,0,U,64184,999,6366,.3583631E-3,.10272E-3,0
STARLINK-34063,2025-113R,2026-07-08T04:22:24.139776,15.31735281,.00013043,53.1586,250.7089,81.5412,278.5738,0,U,64185,999,6352,.65499501E-3,.20037E-3,0
STARLINK-34200,2025-113S,2026-07-08T03:48:47.968128,15.31734541,.0001524,53.1581,250.5612,75.3382,284.7789,0,U,64186,999,6352,.54896348E-3,.16726E-3,0
STARLINK-33934,2025-113T,2026-07-09T04:07:49.462464,15.30248152,.00008484,53.1570,246.9285,87.9502,272.1596,0,U,64187,999,6362,.4431182E-3,.12807E-3,0
STARLINK-33929,2025-113U,2026-07-08T10:50:13.774848,15.30223373,.00012079,53.1573,250.2479,84.3906,275.7232,0,U,64188,999,6355,.61935294E-3,.18042E-3,0
STARLINK-33872,2025-113V,2026-07-09T06:00:02.000160,15.34408583,.00013586,53.1583,243.9773,97.6120,204.6457,0,U,64189,999,572,-.38183902E-3,-.13258E-3,0
STARLINK-34214,2025-113W,2026-07-09T04:23:02.356224,15.30221755,.00006626,53.1569,246.9894,14.5838,345.5182,0,U,64190,999,6366,.53247459E-3,.15455E-3,0
STARLINK-34222,2025-113X,2026-07-09T04:30:38.479968,15.30217740,.00011849,53.1572,247.0194,88.0667,272.0469,0,U,64191,999,6362,.24049187E-3,.6774E-4,0
STARLINK-34265,2025-113Y,2026-07-08T10:57:49.429440,15.30207501,.00011249,53.1573,250.2847,77.9013,282.2114,0,U,64192,999,6351,.45685226E-3,.13199E-3,0
STARLINK-34245,2025-113Z,2026-07-08T10:26:03.853248,15.34421885,.00014897,53.1581,248.0224,85.8987,274.2185,0,U,64193,999,6354,.66295257E-3,.22104E-3,0
STARLINK-34237,2025-113AA,2026-07-09T03:38:21.225984,15.31697201,.00017323,53.1587,246.0889,86.6266,273.4933,0,U,64194,999,6363,.251111E-3,.7434E-4,0
STARLINK-33857,2025-113AB,2026-07-09T06:00:02.000160,15.31715724,.00016072,53.1600,246.2936,76.5700,129.6593,0,U,64195,999,571,-.20215708E-3,-.6636E-4,0
STARLINK-34173,2025-113AC,2026-07-09T03:58:31.528416,15.31716289,.00006111,53.1582,246.1788,25.2768,334.8263,0,U,64196,999,6367,.69828478E-3,.21377E-3,0
STARLINK-33966,2025-117A,2026-07-09T00:35:11.604768,15.30178005,.0001136,53.1585,195.9441,91.8893,268.2238,0,U,64203,999,6313,.23275537E-3,.6536E-4,0
STARLINK-34331,2025-117B,2026-07-08T23:57:07.225920,15.34379613,.00014028,53.1589,195.0727,86.4741,273.6422,0,U,64204,999,6311,.5051167E-3,.16717E-3,0
STARLINK-34251,2025-117C,2026-07-08T23:48:00.870336,15.34418835,.00032836,53.1577,195.0310,99.3265,260.8109,0,U,64205,999,6311,.42012706E-3,.13854E-3,0
STARLINK-34311,2025-117D,2026-07-09T00:18:19.297440,15.34415661,.00014064,53.1590,195.1661,44.4050,315.7066,0,U,64206,999,6314,.29975614E-3,.977E-4,0
STARLINK-34324,2025-117E,2026-07-08T07:16:05.172096,15.30199789,.00011797,53.1583,199.2607,100.7665,259.3468,0,U,64207,999,6196,.37399564E-3,.10733E-3,0
STARLINK-34327,2025-117F,2026-07-08T17:53:08.849184,15.30218974,.00021789,53.1588,197.0462,82.5626,277.5623,0,U,64208,999,6202,-.1956055E-3,-.6152E-4,0
STARLINK-33944,2025-117G,2026-07-09T00:23:03.994944,15.30211953,.00013044,53.1583,195.8995,67.7782,292.3357,0,U,64209,999,6313,.32775391E-3,.9364E-4,0
